NORAD_CAT_ID,OBJECT_NAME,OBJECT_TYPE,EPOCH,MEAN_MOTION,ECCENTRICITY,INCLINATION,RA_OF_ASC_NODE,ARG_OF_PERICENTER,MEAN_ANOMALY,BSTAR,MEAN_MOTION_DOT,MEAN_MOTION_DDOT,TLE_LINE0,TLE_LINE1,TLE_LINE2,SEMIMAJOR_AXIS,PERIOD,APOGEE,PERIGEE,DECAYED
55393.0,STARLINK-4786,PAYLOAD,2024-01-20 15:05:33,14.983275,0.0002886,69.9989,228.5945,264.7643,95.3187,1.0049e-06,-8.1e-07,0.0,0 STARLINK-4786,1 55393U 23014C   24020.62885719 -.00000081  00000-0  10049-5 0  9998,2 55393  69.9989 228.5945 0002886 264.7643  95.3187 14.98327500 55369,6950.201,96.107,574.071,570.06,0.0
55393.0,STARLINK-4786,PAYLOAD,2024-01-20 19:53:57,14.98326543,0.0002916,69.9989,228.0893,263.685,96.3977,-1.2086e-05,-2.37e-06,0.0,0 STARLINK-4786,1 55393U 23014C   24020.82913831 -.00000237  00000-0 -12086-4 0  9993,2 55393  69.9989 228.0893 0002916 263.6850  96.3977 14.98326543 54451,6950.204,96.107,574.095,570.042,0.0
55393.0,STARLINK-4786,PAYLOAD,2024-01-20 21:30:05,14.98327304,0.0002902,69.9989,227.921,263.4452,96.6377,-3.0071e-06,-1.29e-06,0.0,0 STARLINK-4786,1 55393U 23014C   24020.89589762 -.00000129  00000-0 -30071-5 0  9997,2 55393  69.9989 227.9210 0002902 263.4452  96.6377 14.98327304 55402,6950.201,96.107,574.083,570.049,0.0
55393.0,STARLINK-4786,PAYLOAD,2024-01-21 00:42:21,14.98328224,0.0002976,69.9986,227.5838,267.8786,92.2033,-3.2408e-07,-9.7e-07,0.0,0 STARLINK-4786,1 55393U 23014C   24021.02941731 -.00000097  00000-0 -32408-6 0  9992,2 55393  69.9986 227.5838 0002976 267.8786  92.2033 14.98328224 55425,6950.198,96.107,574.132,569.995,0.0
55393.0,STARLINK-4786,PAYLOAD,2024-01-21 19:55:58,14.98331459,0.0003025,69.9987,225.5636,269.0614,91.0198,-3.6065e-06,-1.36e-06,0.0,0 STARLINK-4786,1 55393U 23014C   24021.83053514 -.00000136  00000-0 -36065-5 0  9990,2 55393  69.9987 225.5636 0003025 269.0614  91.0198 14.98331459 54602,6950.188,96.107,574.156,569.951,0.0
55393.0,STARLINK-4786,PAYLOAD,2024-01-21 21:32:06,14.98331953,0.0003014,69.9987,225.3953,268.9874,91.094,2.809e-06,-6e-07,0.0,0 STARLINK-4786,1 55393U 23014C   24021.89729450 -.00000060  00000-0  28090-5 0  9999,2 55393  69.9987 225.3953 0003014 268.9874  91.0940 14.98331953 55555,6950.187,96.107,574.147,569.957,0.0
55393.0,STARLINK-4786,PAYLOAD,2024-01-21 23:08:14,14.98332444,0.0003011,69.9987,225.227,268.9062,91.1752,8.3832e-06,7e-08,0.0,0 STARLINK-4786,1 55393U 23014C   24021.96405394  .00000007  00000-0  83832-5 0  9990,2 55393  69.9987 225.2270 0003011 268.9062  91.1752 14.98332444 55561,6950.185,96.107,574.143,569.958,0.0
55393.0,STARLINK-4786,PAYLOAD,2024-01-22 19:57:59,14.98329492,0.0003061,69.9987,223.0388,269.0369,91.0439,1.7498e-05,1.16e-06,0.0,0 STARLINK-4786,1 55393U 23014C   24022.83193502  .00000116  00000-0  17498-4 0  9997,2 55393  69.9987 223.0388 0003061 269.0369  91.0439 14.98329492 54754,6950.194,96.107,574.187,569.932,0.0
55393.0,STARLINK-4786,PAYLOAD,2024-01-22 21:34:07,14.983307,0.000305,69.9987,222.8705,269.1633,90.9177,3.0679e-05,2.73e-06,0.0,0 STARLINK-4786,1 55393U 23014C   24022.89869378  .00000273  00000-0  30679-4 0  9994,2 55393  69.9987 222.8705 0003050 269.1633  90.9177 14.98330700 55704,6950.191,96.107,574.176,569.936,0.0
55393.0,STARLINK-4786,PAYLOAD,2024-01-23 05:34:47,14.98332639,0.0003061,69.9984,222.0293,270.8494,89.2314,1.7379e-05,1.14e-06,0.0,0 STARLINK-4786,1 55393U 23014C   24023.23249254  .00000114  00000-0  17379-4 0  9994,2 55393  69.9984 222.0293 0003061 270.8494  89.2314 14.98332639 55753,6950.185,96.107,574.177,569.922,0.0
55393.0,STARLINK-4786,PAYLOAD,2024-01-23 21:36:07,14.98335978,0.0003078,69.9984,220.3461,270.8969,89.1838,4.2723e-05,4.17e-06,0.0,0 STARLINK-4786,1 55393U 23014C   24023.90008791  .00000417  00000-0  42723-4 0  9994,2 55393  69.9984 220.3461 0003078 270.8969  89.1838 14.98335978 55856,6950.174,96.107,574.179,569.9,0.0
55393.0,STARLINK-4786,PAYLOAD,2024-01-24 02:24:31,14.98337206,0.0003056,69.9983,219.8412,271.0284,89.0524,5.6376e-05,5.8e-06,0.0,0 STARLINK-4786,1 55393U 23014C   24024.10036597  .00000580  00000-0  56376-4 0  9992,2 55393  69.9983 219.8412 0003056 271.0284  89.0524 14.98337206 54949,6950.171,96.107,574.16,569.912,0.0
55393.0,STARLINK-4786,PAYLOAD,2024-01-24 10:25:12,14.9832738,0.0003032,69.9983,218.9997,271.6488,88.4324,-3.8455e-05,-5.52e-06,0.0,0 STARLINK-4786,1 55393U 23014C   24024.43417457 -.00000552  00000-0 -38455-4 0  9995,2 55393  69.9983 218.9997 0003032 271.6488  88.4324 14.98327380 54991,6950.201,96.107,574.173,569.959,0.0
55393.0,STARLINK-4786,PAYLOAD,2024-01-24 13:37:28,14.98327307,0.0003007,69.9983,218.6633,273.1943,86.8872,-4.8591e-05,-6.73e-06,0.0,0 STARLINK-4786,1 55393U 23014C   24024.56769510 -.00000673  00000-0 -48591-4 0  9995,2 55393  69.9983 218.6633 0003007 273.1943  86.8872 14.98327307 55956,6950.201,96.107,574.156,569.976,0.0
55393.0,STARLINK-4786,PAYLOAD,2024-01-24 21:38:09,14.98328494,0.0003037,69.9987,217.8212,271.6642,88.4169,-2.1513e-05,-3.5e-06,0.0,0 STARLINK-4786,1 55393U 23014C   24024.90149349 -.00000350  00000-0 -21513-4 0  9992,2 55393  69.9987 217.8212 0003037 271.6642  88.4169 14.98328494 56008,6950.198,96.107,574.173,569.952,0.0
55393.0,STARLINK-4786,PAYLOAD,2024-01-25 13:39:29,14.98328509,0.0003075,69.9987,216.138,269.6978,90.3828,-3.3077e-05,-4.88e-06,0.0,0 STARLINK-4786,1 55393U 23014C   24025.56909328 -.00000488  00000-0 -33077-4 0  9996,2 55393  69.9987 216.1380 0003075 269.6978  90.3828 14.98328509 56109,6950.198,96.107,574.2,569.925,0.0
55393.0,STARLINK-4786,PAYLOAD,2024-01-25 20:04:01,14.98330954,0.0003172,69.9989,215.4648,271.6406,88.4389,-3.8434e-05,-5.52e-06,0.0,0 STARLINK-4786,1 55393U 23014C   24025.83613184 -.00000552  00000-0 -38434-4 0  9992,2 55393  69.9989 215.4648 0003172 271.6406  88.4389 14.98330954 55204,6950.19,96.107,574.26,569.85,0.0
55393.0,STARLINK-4786,PAYLOAD,2024-01-25 21:40:09,14.98331545,0.000313,69.9988,215.2965,270.9978,89.0822,-2.5353e-05,-3.96e-06,0.0,0 STARLINK-4786,1 55393U 23014C   24025.90289101 -.00000396  00000-0 -25353-4 0  9990,2 55393  69.9988 215.2965 0003130 270.9978  89.0822 14.98331545 56154,6950.188,96.107,574.229,569.878,0.0
55393.0,STARLINK-4786,PAYLOAD,2024-01-26 13:41:30,14.98325265,0.0003061,69.9988,213.6132,269.4826,90.5982,8.5534e-05,9.28e-06,0.0,0 STARLINK-4786,1 55393U 23014C   24026.57049179  .00000928  00000-0  85534-4 0  9999,2 55393  69.9988 213.6132 0003061 269.4826  90.5982 14.98325265 56257,6950.208,96.107,574.2,569.945,0.0
55393.0,STARLINK-4786,PAYLOAD,2024-01-26 21:42:10,14.98329012,0.000311,69.999,212.7716,271.7486,88.3317,5.1574e-05,5.22e-06,0.0,0 STARLINK-4786,1 55393U 23014C   24026.90429050  .00000522  00000-0  51574-4 0  9993,2 55393  69.9990 212.7716 0003110 271.7486  88.3317 14.98329012 55363,6950.196,96.107,574.222,569.899,0.0
55393.0,STARLINK-4786,PAYLOAD,2024-01-27 13:43:31,14.98330793,0.0002972,69.9997,211.0897,270.4198,89.662,9.016e-05,9.83e-06,0.0,0 STARLINK-4786,1 55393U 23014C   24027.57188826  .00000983  00000-0  90160-4 0  9995,2 55393  69.9997 211.0897 0002972 270.4198  89.6620 14.98330793 56408,6950.19,96.107,574.121,569.99,0.0
55393.0,STARLINK-4786,PAYLOAD,2024-01-27 20:08:02,14.98336633,0.0002884,70.0004,210.4183,266.8486,93.2343,7.9529e-05,8.56e-06,0.0,0 STARLINK-4786,1 55393U 23014C   24027.83892361  .00000856  00000-0  79529-4 0  9995,2 55393  70.0004 210.4183 0002884 266.8486  93.2343 14.98336633 55504,6950.172,96.107,574.042,570.033,0.0
55393.0,STARLINK-4786,PAYLOAD,2024-01-27 21:44:11,14.98336484,0.0002897,70.0003,210.2498,267.6167,92.466,7.5899e-05,8.13e-06,0.0,0 STARLINK-4786,1 55393U 23014C   24027.90568347  .00000813  00000-0  75899-4 0  9996,2 55393  70.0003 210.2498 0002897 267.6167  92.4660 14.98336484 56451,6950.173,96.107,574.051,570.024,0.0
55393.0,STARLINK-4786,PAYLOAD,2024-01-28 12:09:24,14.98327664,0.0002639,70.0012,208.7348,259.3475,100.7387,-9.562e-06,-2.07e-06,0.0,0 STARLINK-4786,1 55393U 23014C   24028.50653016 -.00000207  00000-0 -95620-5 0  9995,2 55393  70.0012 208.7348 0002639 259.3475 100.7387 14.98327664 55606,6950.2,96.107,573.899,570.231,0.0
55393.0,STARLINK-4786,PAYLOAD,2024-01-28 13:45:32,14.98326638,0.0002659,70.0012,208.5673,258.4349,101.6512,-2.5855e-05,-4.01e-06,0.0,0 STARLINK-4786,1 55393U 23014C   24028.57329127 -.00000401  00000-0 -25855-4 0  9993,2 55393  70.0012 208.5673 0002659 258.4349 101.6512 14.98326638 56552,6950.203,96.107,573.916,570.22,0.0
55393.0,STARLINK-4786,PAYLOAD,2024-01-28 21:46:13,14.98322982,0.0002762,70.0008,207.7247,262.8574,97.2271,-6.9925e-05,-9.27e-06,0.0,0 STARLINK-4786,1 55393U 23014C   24028.90709568 -.00000927  00000-0 -69925-4 0  9990,2 55393  70.0008 207.7247 0002762 262.8574  97.2271 14.98322982 56605,6950.215,96.107,573.999,570.16,0.0
55393.0,STARLINK-4786,PAYLOAD,2024-01-29 12:11:25,14.98333837,0.0002989,70.0001,206.2077,268.623,91.4587,-6.5713e-05,-8.77e-06,0.0,0 STARLINK-4786,1 55393U 23014C   24029.50792920 -.00000877  00000-0 -65713-4 0  9996,2 55393  70.0001 206.2077 0002989 268.6230  91.4587 14.98333837 55759,6950.181,96.107,574.123,569.969,0.0
55393.0,STARLINK-4786,PAYLOAD,2024-01-29 21:48:13,14.98333646,0.0002979,70.0002,205.1978,268.4508,91.631,-5.4682e-05,-7.45e-06,0.0,0 STARLINK-4786,1 55393U 23014C   24029.90848821 -.00000745  00000-0 -54682-4 0  9999,2 55393  70.0002 205.1978 0002979 268.4508  91.6310 14.98333646 56758,6950.182,96.107,574.117,569.976,0.0
55393.0,STARLINK-4786,PAYLOAD,2024-01-30 12:13:25,14.98327533,0.0003114,69.9997,203.6827,265.6725,94.4078,6.3331e-05,6.63e-06,0.0,0 STARLINK-4786,1 55393U 23014C   24030.50932795  .00000663  00000-0  63331-4 0  9999,2 55393  69.9997 203.6827 0003114 265.6725  94.4078 14.98327533 55902,6950.201,96.107,574.23,569.901,0.0
55393.0,STARLINK-4786,PAYLOAD,2024-01-30 13:49:34,14.98327635,0.0003102,69.9997,203.5144,267.2065,92.8739,6.6308e-05,6.98e-06,0.0,0 STARLINK-4786,1 55393U 23014C   24030.57608801  .00000698  00000-0  66308-4 0  9999,2 55393  69.9997 203.5144 0003102 267.2065  92.8739 14.98327635 56859,6950.2,96.107,574.221,569.909,0.0
